LUR-1                   
1 60506U 24149AQ  26068.79566301  .00009121  00000+0  32985-3 0  9998
2 60506  97.3790 148.4255 0002777 309.1571  50.9421 15.28658648 86785
STARLINK-33898          
1 64002U 25101J   26068.18167243  .00035724  00000+0  13009-2 0  9990
2 64002  43.0071   1.1709 0002213 260.0031 100.0571 15.27592458 46975
